CCSDS_OMM_VERS = 2.0
CREATION_DATE  = 
ORIGINATOR     = 

OBJECT_NAME    = TITAN 4B R/B
OBJECT_ID      = 2000-047B
CENTER_NAME    = EARTH
REF_FRAME      = TEME
TIME_SYSTEM    = UTC
MEAN_ELEMENT_THEORY = SGP/SGP4

EPOCH          = 2025-11-07T19:15:44.836128
MEAN_MOTION    = 15.08397029
ECCENTRICITY   = .0042375
INCLINATION    = 67.9919
RA_OF_ASC_NODE = 22.9497
ARG_OF_PERICENTER = 185.2033
MEAN_ANOMALY   = 174.8682

EPHEMERIS_TYPE = 0
CLASSIFICATION_TYPE = U
NORAD_CAT_ID   = 26474
ELEMENT_SET_NO = 999
REV_AT_EPOCH   = 37452
BSTAR          = .42529E-3
MEAN_MOTION_DOT = .6639E-4
MEAN_MOTION_DDOT = 0

CCSDS_OMM_VERS = 2.0
CREATION_DATE  = 
ORIGINATOR     = 

OBJECT_NAME    = ENVISAT
OBJECT_ID      = 2002-009A
CENTER_NAME    = EARTH
REF_FRAME      = TEME
TIME_SYSTEM    = UTC
MEAN_ELEMENT_THEORY = SGP/SGP4

EPOCH          = 2025-11-07T20:30:36.226080
MEAN_MOTION    = 14.38979036
ECCENTRICITY   = .0001313
INCLINATION    = 98.3541
RA_OF_ASC_NODE = 263.4899
ARG_OF_PERICENTER = 83.5625
MEAN_ANOMALY   = 306.2968

EPHEMERIS_TYPE = 0
CLASSIFICATION_TYPE = U
NORAD_CAT_ID   = 27386
ELEMENT_SET_NO = 999
REV_AT_EPOCH   = 24165
BSTAR          = .86868E-4
MEAN_MOTION_DOT = .225E-5
MEAN_MOTION_DDOT = 0

CCSDS_OMM_VERS = 2.0
CREATION_DATE  = 
ORIGINATOR     = 

OBJECT_NAME    = IDEFIX & ARIANE 42P R/B
OBJECT_ID      = 2002-021B
CENTER_NAME    = EARTH
REF_FRAME      = TEME
TIME_SYSTEM    = UTC
MEAN_ELEMENT_THEORY = SGP/SGP4

EPOCH          = 2025-11-07T19:56:15.090144
MEAN_MOTION    = 14.30910337
ECCENTRICITY   = .0011586
INCLINATION    = 98.5733
RA_OF_ASC_NODE = 246.9849
ARG_OF_PERICENTER = 180.9565
MEAN_ANOMALY   = 179.1598

EPHEMERIS_TYPE = 0
CLASSIFICATION_TYPE = U
NORAD_CAT_ID   = 27422
ELEMENT_SET_NO = 999
REV_AT_EPOCH   = 22659
BSTAR          = .19796E-3
MEAN_MOTION_DOT = .477E-5
MEAN_MOTION_DDOT = 0

CCSDS_OMM_VERS = 2.0
CREATION_DATE  = 
ORIGINATOR     = 

OBJECT_NAME    = AQUA
OBJECT_ID      = 2002-022A
CENTER_NAME    = EARTH
REF_FRAME      = TEME
TIME_SYSTEM    = UTC
MEAN_ELEMENT_THEORY = SGP/SGP4

EPOCH          = 2025-11-07T20:11:56.920128
MEAN_MOTION    = 14.61679441
ECCENTRICITY   = .0001022
INCLINATION    = 98.3984
RA_OF_ASC_NODE = 272.1664
ARG_OF_PERICENTER = 48.6593
MEAN_ANOMALY   = 341.5687

EPHEMERIS_TYPE = 0
CLASSIFICATION_TYPE = U
NORAD_CAT_ID   = 27424
ELEMENT_SET_NO = 999
REV_AT_EPOCH   = 25093
BSTAR          = .37195E-3
MEAN_MOTION_DOT = .1803E-4
MEAN_MOTION_DDOT = 0

CCSDS_OMM_VERS = 2.0
CREATION_DATE  = 
ORIGINATOR     = 

OBJECT_NAME    = CZ-4B R/B
OBJECT_ID      = 2002-024C
CENTER_NAME    = EARTH
REF_FRAME      = TEME
TIME_SYSTEM    = UTC
MEAN_ELEMENT_THEORY = SGP/SGP4

EPOCH          = 2025-11-07T13:55:46.599744
MEAN_MOTION    = 14.14516711
ECCENTRICITY   = .0050302
INCLINATION    = 98.9055
RA_OF_ASC_NODE = 0.4657
ARG_OF_PERICENTER = 10.9556
MEAN_ANOMALY   = 147.9767

EPHEMERIS_TYPE = 0
CLASSIFICATION_TYPE = U
NORAD_CAT_ID   = 27432
ELEMENT_SET_NO = 999
REV_AT_EPOCH   = 21197
BSTAR          = .73063E-4
MEAN_MOTION_DOT = .97E-6
MEAN_MOTION_DDOT = 0

CCSDS_OMM_VERS = 2.0
CREATION_DATE  = 
ORIGINATOR     = 

OBJECT_NAME    = MIDORI II (ADEOS-II)
OBJECT_ID      = 2002-056A
CENTER_NAME    = EARTH
REF_FRAME      = TEME
TIME_SYSTEM    = UTC
MEAN_ELEMENT_THEORY = SGP/SGP4

EPOCH          = 2025-11-07T20:24:57.835296
MEAN_MOTION    = 14.29168396
ECCENTRICITY   = .0001539
INCLINATION    = 98.7579
RA_OF_ASC_NODE = 264.6346
ARG_OF_PERICENTER = 40.5682
MEAN_ANOMALY   = 319.5614

EPHEMERIS_TYPE = 0
CLASSIFICATION_TYPE = U
NORAD_CAT_ID   = 27597
ELEMENT_SET_NO = 999
REV_AT_EPOCH   = 19289
BSTAR          = .20415E-3
MEAN_MOTION_DOT = .473E-5
MEAN_MOTION_DDOT = 0

CCSDS_OMM_VERS = 2.0
CREATION_DATE  = 
ORIGINATOR     = 

OBJECT_NAME    = H-2A R/B
OBJECT_ID      = 2002-056E
CENTER_NAME    = EARTH
REF_FRAME      = TEME
TIME_SYSTEM    = UTC
MEAN_ELEMENT_THEORY = SGP/SGP4

EPOCH          = 2025-11-07T20:28:20.032896
MEAN_MOTION    = 14.33637520
ECCENTRICITY   = .0070544
INCLINATION    = 98.3012
RA_OF_ASC_NODE = 272.0095
ARG_OF_PERICENTER = 163.7419
MEAN_ANOMALY   = 249.9358

EPHEMERIS_TYPE = 0
CLASSIFICATION_TYPE = U
NORAD_CAT_ID   = 27601
ELEMENT_SET_NO = 999
REV_AT_EPOCH   = 19665
BSTAR          = .16679E-3
MEAN_MOTION_DOT = .434E-5
MEAN_MOTION_DDOT = 0

CCSDS_OMM_VERS = 2.0
CREATION_DATE  = 
ORIGINATOR     = 

OBJECT_NAME    = CZ-4B R/B
OBJECT_ID      = 2003-049C
CENTER_NAME    = EARTH
REF_FRAME      = TEME
TIME_SYSTEM    = UTC
MEAN_ELEMENT_THEORY = SGP/SGP4

EPOCH          = 2025-11-07T17:26:56.425344
MEAN_MOTION    = 14.54858869
ECCENTRICITY   = .0047176
INCLINATION    = 98.6764
RA_OF_ASC_NODE = 296.9730
ARG_OF_PERICENTER = 243.3874
MEAN_ANOMALY   = 116.2485

EPHEMERIS_TYPE = 0
CLASSIFICATION_TYPE = U
NORAD_CAT_ID   = 28059
ELEMENT_SET_NO = 999
REV_AT_EPOCH   = 16886
BSTAR          = .16572E-3
MEAN_MOTION_DOT = .67E-5
MEAN_MOTION_DDOT = 0

CCSDS_OMM_VERS = 2.0
CREATION_DATE  = 
ORIGINATOR     = 

OBJECT_NAME    = CZ-2C R/B
OBJECT_ID      = 2004-012C
CENTER_NAME    = EARTH
REF_FRAME      = TEME
TIME_SYSTEM    = UTC
MEAN_ELEMENT_THEORY = SGP/SGP4

EPOCH          = 2025-11-07T13:54:36.787680
MEAN_MOTION    = 15.52350117
ECCENTRICITY   = .0019906
INCLINATION    = 97.7482
RA_OF_ASC_NODE = 1.3740
ARG_OF_PERICENTER = 42.4749
MEAN_ANOMALY   = 317.8039

EPHEMERIS_TYPE = 0
CLASSIFICATION_TYPE = U
NORAD_CAT_ID   = 28222
ELEMENT_SET_NO = 999
REV_AT_EPOCH   = 18526
BSTAR          = .69364E-3
MEAN_MOTION_DOT = .42665E-3
MEAN_MOTION_DDOT = 0

CCSDS_OMM_VERS = 2.0
CREATION_DATE  = 
ORIGINATOR     = 

OBJECT_NAME    = SL-16 R/B
OBJECT_ID      = 2004-021B
CENTER_NAME    = EARTH
REF_FRAME      = TEME
TIME_SYSTEM    = UTC
MEAN_ELEMENT_THEORY = SGP/SGP4

EPOCH          = 2025-11-07T19:55:52.366944
MEAN_MOTION    = 14.14569834
ECCENTRICITY   = .0006794
INCLINATION    = 70.9968
RA_OF_ASC_NODE = 128.2217
ARG_OF_PERICENTER = 236.5093
MEAN_ANOMALY   = 123.5380

EPHEMERIS_TYPE = 0
CLASSIFICATION_TYPE = U
NORAD_CAT_ID   = 28353
ELEMENT_SET_NO = 999
REV_AT_EPOCH   = 10560
BSTAR          = .54835E-4
MEAN_MOTION_DOT = .58E-6
MEAN_MOTION_DDOT = 0

CCSDS_OMM_VERS = 2.0
CREATION_DATE  = 
ORIGINATOR     = 

OBJECT_NAME    = CZ-4B R/B
OBJECT_ID      = 2004-035C
CENTER_NAME    = EARTH
REF_FRAME      = TEME
TIME_SYSTEM    = UTC
MEAN_ELEMENT_THEORY = SGP/SGP4

EPOCH          = 2025-11-07T12:03:01.701792
MEAN_MOTION    = 15.26540596
ECCENTRICITY   = .0035216
INCLINATION    = 97.3651
RA_OF_ASC_NODE = 342.3284
ARG_OF_PERICENTER = 43.9783
MEAN_ANOMALY   = 316.4248

EPHEMERIS_TYPE = 0
CLASSIFICATION_TYPE = U
NORAD_CAT_ID   = 28415
ELEMENT_SET_NO = 999
REV_AT_EPOCH   = 16125
BSTAR          = .44134E-3
MEAN_MOTION_DOT = .11676E-3
MEAN_MOTION_DDOT = 0

CCSDS_OMM_VERS = 2.0
CREATION_DATE  = 
ORIGINATOR     = 

OBJECT_NAME    = CZ-2C R/B
OBJECT_ID      = 2004-046B
CENTER_NAME    = EARTH
REF_FRAME      = TEME
TIME_SYSTEM    = UTC
MEAN_ELEMENT_THEORY = SGP/SGP4

EPOCH          = 2025-11-07T18:11:43.632096
MEAN_MOTION    = 14.26916870
ECCENTRICITY   = .013999
INCLINATION    = 98.1955
RA_OF_ASC_NODE = 229.3166
ARG_OF_PERICENTER = 154.9993
MEAN_ANOMALY   = 205.8055

EPHEMERIS_TYPE = 0
CLASSIFICATION_TYPE = U
NORAD_CAT_ID   = 28480
ELEMENT_SET_NO = 999
REV_AT_EPOCH   = 9111
BSTAR          = .11453E-3
MEAN_MOTION_DOT = .268E-5
MEAN_MOTION_DDOT = 0

