TITAN 4B R/B            
1 26474U 00047B   25311.80260227  .00006639  00000+0  42529-3 0  9991
2 26474  67.9919  22.9497 0042375 185.2033 174.8682 15.08397029374523
ENVISAT                 
1 27386U 02009A   25311.85458595  .00000225  00000+0  86868-4 0  9996
2 27386  98.3541 263.4899 0001313  83.5625 306.2968 14.38979036241658
IDEFIX & ARIANE 42P R/B 
1 27422U 02021B   25311.83073021  .00000477  00000+0  19796-3 0  9990
2 27422  98.5733 246.9849 0011586 180.9565 179.1598 14.30910337226596
AQUA                    
1 27424U 02022A   25311.84163102  .00001803  00000+0  37195-3 0  9991
2 27424  98.3984 272.1664 0001022  48.6593 341.5687 14.61679441250936
CZ-4B R/B               
1 27432U 02024C   25311.58040046  .00000097  00000+0  73063-4 0  9993
2 27432  98.9055   0.4657 0050302  10.9556 147.9767 14.14516711211976
MIDORI II (ADEOS-II)    
1 27597U 02056A   25311.85066939  .00000473  00000+0  20415-3 0  9999
2 27597  98.7579 264.6346 0001539  40.5682 319.5614 14.29168396192898
H-2A R/B                
1 27601U 02056E   25311.85300964  .00000434  00000+0  16679-3 0  9998
2 27601  98.3012 272.0095 0070544 163.7419 249.9358 14.33637520196658
CZ-4B R/B               
1 28059U 03049C   25311.72704196  .00000670  00000+0  16572-3 0  9994
2 28059  98.6764 296.9730 0047176 243.3874 116.2485 14.54858869168862
CZ-2C R/B               
1 28222U 04012C   25311.57959245  .00042665  00000+0  69364-3 0  9994
2 28222  97.7482   1.3740 0019906  42.4749 317.8039 15.52350117185268
SL-16 R/B               
1 28353U 04021B   25311.83046721  .00000058  00000+0  54835-4 0  9992
2 28353  70.9968 128.2217 0006794 236.5093 123.5380 14.14569834105608
CZ-4B R/B               
1 28415U 04035C   25311.50210303  .00011676  00000+0  44134-3 0  9997
2 28415  97.3651 342.3284 0035216  43.9783 316.4248 15.26540596161256
CZ-2C R/B               
1 28480U 04046B   25311.75814389  .00000268  00000+0  11453-3 0  9995
2 28480  98.1955 229.3166 0139990 154.9993 205.8055 14.26916870 91112
